NORAD_CAT_ID,OBJECT_NAME,OBJECT_TYPE,EPOCH,MEAN_MOTION,ECCENTRICITY,INCLINATION,RA_OF_ASC_NODE,ARG_OF_PERICENTER,MEAN_ANOMALY,BSTAR,MEAN_MOTION_DOT,MEAN_MOTION_DDOT,TLE_LINE0,TLE_LINE1,TLE_LINE2,SEMIMAJOR_AXIS,PERIOD,APOGEE,PERIGEE,DECAYED
54093.0,STARLINK-5213,PAYLOAD,2023-09-28 13:10:08,15.08843606,0.0001375,53.2197,23.3405,101.7689,258.3457,0.00014509,2.022e-05,0.0,0 STARLINK-5213,1 54093U 22136AU  23271.54871107  .00002022  00000-0  14509-3 0  9991,2 54093  53.2197  23.3405 0001375 101.7689 258.3457 15.08843606 52625,6917.869,95.437,540.686,538.783,0.0
54093.0,STARLINK-5213,PAYLOAD,2023-09-29 14:36:19,15.08840128,0.0001559,53.2194,18.5815,98.4315,261.6853,4.3298e-05,4.01e-06,0.0,0 STARLINK-5213,1 54093U 22136AU  23272.60855421  .00000401  00000-0  43298-4 0  9997,2 54093  53.2194  18.5815 0001559  98.4315 261.6853 15.08840128 52314,6917.88,95.438,540.823,538.667,0.0
54093.0,STARLINK-5213,PAYLOAD,2023-09-30 00:08:37,15.08844496,0.0001282,53.2185,16.7903,83.0587,277.0551,3.4745e-05,2.65e-06,0.0,0 STARLINK-5213,1 54093U 22136AU  23273.00599131  .00000265  00000-0  34745-4 0  9990,2 54093  53.2185  16.7903 0001282  83.0587 277.0551 15.08844496 52370,6917.867,95.437,540.619,538.845,0.0
54093.0,STARLINK-5213,PAYLOAD,2023-09-30 16:02:28,15.08864159,0.0001442,53.2183,13.8193,77.8792,282.2362,0.00059121,9.14e-05,0.0,0 STARLINK-5213,1 54093U 22136AU  23273.66838590  .00009140  00000-0  59121-3 0  9992,2 54093  53.2183  13.8193 0001442  77.8792 282.2362 15.08864159 52943,6917.807,95.436,540.669,538.674,0.0
54093.0,STARLINK-5213,PAYLOAD,2023-09-30 23:59:24,15.08854947,0.0001445,53.2197,12.3336,90.744,269.3717,0.00027907,4.158e-05,0.0,0 STARLINK-5213,1 54093U 22136AU  23273.99958582  .00004158  00000-0  27907-3 0  9993,2 54093  53.2197  12.3336 0001445  90.7440 269.3717 15.08854947 52997,6917.835,95.437,540.699,538.7,0.0
54093.0,STARLINK-5213,PAYLOAD,2023-10-01 12:42:29,15.08851644,0.0001237,53.2183,9.9539,103.8429,256.2701,0.00016093,2.275e-05,0.0,0 STARLINK-5213,1 54093U 22136AU  23274.52950296  .00002275  00000-0  16093-3 0  9999,2 54093  53.2183   9.9539 0001237 103.8429 256.2701 15.08851644 52608,6917.845,95.437,540.566,538.854,0.0
54093.0,STARLINK-5213,PAYLOAD,2023-10-01 15:53:15,15.08858499,0.0001473,53.217,9.3578,105.613,254.5024,0.00027803,4.142e-05,0.0,0 STARLINK-5213,1 54093U 22136AU  23274.66197936  .00004142  00000-0  27803-3 0  9994,2 54093  53.2170   9.3578 0001473 105.6130 254.5024 15.08858499 52628,6917.824,95.436,540.708,538.67,0.0
54093.0,STARLINK-5213,PAYLOAD,2023-10-01 23:50:11,15.08831899,0.00021,53.2201,7.8715,83.7881,276.335,-0.00022819,-3.917e-05,0.0,0 STARLINK-5213,1 54093U 22136AU  23274.99319079 -.00003917  00000-0 -22819-3 0  9997,2 54093  53.2201   7.8715 0002100  83.7881 276.3350 15.08831899 53143,6917.905,95.438,541.223,538.317,0.0
54093.0,STARLINK-5213,PAYLOAD,2023-10-02 17:19:26,15.08839455,0.0001435,53.219,4.6004,84.9268,275.1888,2.358e-05,8.7e-07,0.0,0 STARLINK-5213,1 54093U 22136AU  23275.72183051  .00000087  00000-0  23580-4 0  9998,2 54093  53.2190   4.6004 0001435  84.9268 275.1888 15.08839455 53259,6917.882,95.438,540.74,538.754,0.0
54093.0,STARLINK-5213,PAYLOAD,2023-10-03 12:24:03,15.088499,0.000149,53.2176,1.0342,85.2458,274.8704,0.00035255,5.329e-05,0.0,0 STARLINK-5213,1 54093U 22136AU  23276.51671137  .00005329  00000-0  35255-3 0  9998,2 54093  53.2176   1.0342 0001490  85.2458 274.8704 15.08849900 52905,6917.85,95.437,540.746,538.684,0.0
54093.0,STARLINK-5213,PAYLOAD,2023-10-04 10:39:28,15.08846537,0.0001648,53.2191,356.8712,78.9279,281.1899,0.00036216,5.481e-05,0.0,0 STARLINK-5213,1 54093U 22136AU  23277.44407534  .00005481  00000-0  36216-3 0  9996,2 54093  53.2191 356.8712 0001648  78.9279 281.1899 15.08846537 53516,6917.86,95.437,540.865,538.585,0.0
54093.0,STARLINK-5213,PAYLOAD,2023-10-04 12:14:51,15.08851193,0.0001444,53.2185,356.5742,79.0495,281.0659,0.00043108,6.581e-05,0.0,0 STARLINK-5213,1 54093U 22136AU  23277.51031340  .00006581  00000-0  43108-3 0  9992,2 54093  53.2185 356.5742 0001444  79.0495 281.0659 15.08851193 53051,6917.846,95.437,540.71,538.712,0.0
54093.0,STARLINK-5213,PAYLOAD,2023-10-05 10:30:14,15.08848282,0.0001892,53.2197,352.4145,104.1175,256.0028,0.00021425,3.124e-05,0.0,0 STARLINK-5213,1 54093U 22136AU  23278.43767296  .00003124  00000-0  21425-3 0  9998,2 54093  53.2197 352.4145 0001892 104.1175 256.0028 15.08848282 53662,6917.855,95.437,541.029,538.411,0.0
54093.0,STARLINK-5213,PAYLOAD,2023-10-05 12:05:38,15.08848945,0.0001896,53.22,352.118,106.8534,253.2666,0.00040306,6.134e-05,0.0,0 STARLINK-5213,1 54093U 22136AU  23278.50391317  .00006134  00000-0  40306-3 0  9996,2 54093  53.2200 352.1180 0001896 106.8534 253.2666 15.08848945 53208,6917.853,95.437,541.03,538.406,0.0
54093.0,STARLINK-5213,PAYLOAD,2023-10-06 10:21:02,15.08836478,0.0001643,53.2192,347.9501,100.2558,259.8619,7.7209e-05,9.41e-06,0.0,0 STARLINK-5213,1 54093U 22136AU  23279.43127839  .00000941  00000-0  77209-4 0  9998,2 54093  53.2192 347.9501 0001643 100.2558 259.8619 15.08836478 53816,6917.891,95.438,540.893,538.62,0.0
54093.0,STARLINK-5213,PAYLOAD,2023-10-06 13:31:48,15.0884277,0.000139,53.2185,347.3553,88.7707,271.3445,0.00024152,3.558e-05,0.0,0 STARLINK-5213,1 54093U 22136AU  23279.56375709  .00003558  00000-0  24152-3 0  9998,2 54093  53.2185 347.3553 0001390  88.7707 271.3445 15.08842770 53362,6917.872,95.437,540.699,538.775,0.0
54093.0,STARLINK-5213,PAYLOAD,2023-10-06 21:28:44,15.08838308,0.0001437,53.2183,345.87,91.5848,268.5309,0.000203,2.944e-05,0.0,0 STARLINK-5213,1 54093U 22136AU  23279.89496041  .00002944  00000-0  20300-3 0  9996,2 54093  53.2183 345.8700 0001437  91.5848 268.5309 15.08838308 53412,6917.886,95.438,540.745,538.756,0.0
54093.0,STARLINK-5213,PAYLOAD,2023-10-07 11:47:12,15.0884316,0.000144,53.2186,343.1885,80.1303,279.9851,0.00026925,4e-05,0.0,0 STARLINK-5213,1 54093U 22136AU  23280.49111853  .00004000  00000-0  26925-3 0  9993,2 54093  53.2186 343.1885 0001440  80.1303 279.9851 15.08843160 53504,6917.871,95.437,540.732,538.74,0.0
54093.0,STARLINK-5213,PAYLOAD,2023-10-08 10:02:36,15.08840761,0.0001326,53.2173,339.0294,81.8382,278.2761,0.00014825,2.072e-05,0.0,0 STARLINK-5213,1 54093U 22136AU  23281.41848143  .00002072  00000-0  14825-3 0  9998,2 54093  53.2173 339.0294 0001326  81.8382 278.2761 15.08840761 54110,6917.878,95.438,540.66,538.826,0.0
54093.0,STARLINK-5213,PAYLOAD,2023-10-08 13:13:22,15.08846662,0.0001363,53.2174,338.4349,82.8925,277.2222,0.00026138,3.875e-05,0.0,0 STARLINK-5213,1 54093U 22136AU  23281.55095935  .00003875  00000-0  26138-3 0  9998,2 54093  53.2174 338.4349 0001363  82.8925 277.2222 15.08846662 53666,6917.86,95.437,540.668,538.782,0.0
54093.0,STARLINK-5213,PAYLOAD,2023-10-08 21:10:18,15.0884034,0.000138,53.2179,336.9476,82.2338,277.8811,9.3377e-05,1.198e-05,0.0,0 STARLINK-5213,1 54093U 22136AU  23281.88216151  .00001198  00000-0  93377-4 0  9995,2 54093  53.2179 336.9476 0001380  82.2338 277.8811 15.08840340 53719,6917.879,95.438,540.699,538.79,0.0
54093.0,STARLINK-5213,PAYLOAD,2023-10-09 13:04:09,15.08851872,0.0001526,53.2169,333.9743,82.6954,277.4212,0.0002674,3.972e-05,0.0,0 STARLINK-5213,1 54093U 22136AU  23282.54455695  .00003972  00000-0  26740-3 0  9998,2 54093  53.2169 333.9743 0001526  82.6954 277.4212 15.08851872 53816,6917.844,95.437,540.765,538.653,0.0
54093.0,STARLINK-5213,PAYLOAD,2023-10-10 12:54:56,15.0885089,0.0001619,53.2169,329.5142,90.7028,269.4149,0.00020812,3.027e-05,0.0,0 STARLINK-5213,1 54093U 22136AU  23283.53815587  .00003027  00000-0  20812-3 0  9993,2 54093  53.2169 329.5142 0001619  90.7028 269.4149 15.08850890 54433,6917.847,95.437,540.832,538.592,0.0
54093.0,STARLINK-5213,PAYLOAD,2023-10-11 03:13:25,15.08836526,0.0001594,53.2166,326.8379,87.1772,272.9402,3.2855e-05,2.35e-06,0.0,0 STARLINK-5213,1 54093U 22136AU  23284.13432442  .00000235  00000-0  32855-4 0  9994,2 54093  53.2166 326.8379 0001594  87.1772 272.9402 15.08836526 54521,6917.891,95.438,540.859,538.653,0.0
54093.0,STARLINK-5213,PAYLOAD,2023-10-11 09:34:58,15.0883565,0.0001684,53.2164,325.6483,81.729,278.3893,2.3832e-05,9.1e-07,0.0,0 STARLINK-5213,1 54093U 22136AU  23284.39928918  .00000091  00000-0  23832-4 0  9995,2 54093  53.2164 325.6483 0001684  81.7290 278.3893 15.08835650 54090,6917.894,95.438,540.924,538.594,0.0
54093.0,STARLINK-5213,PAYLOAD,2023-10-12 09:25:44,15.08848557,0.0001732,53.2174,321.1895,81.4074,278.7114,0.00013844,1.916e-05,0.0,0 STARLINK-5213,1 54093U 22136AU  23285.39288168  .00001916  00000-0  13844-3 0  9990,2 54093  53.2174 321.1895 0001732  81.4074 278.7114 15.08848557 54247,6917.854,95.437,540.917,538.521,0.0
54093.0,STARLINK-5213,PAYLOAD,2023-10-12 18:58:04,15.08828973,0.0002266,53.218,319.4041,78.6866,281.438,-4.9989e-05,-1.084e-05,0.0,0 STARLINK-5213,1 54093U 22136AU  23285.79033230 -.00001084  00000-0 -49989-4 0  9990,2 54093  53.2180 319.4041 0002266  78.6866 281.4380 15.08828973 54771,6917.914,95.438,541.347,538.211,0.0
54093.0,STARLINK-5213,PAYLOAD,2023-10-13 02:55:00,15.0883787,0.0001578,53.219,317.9167,85.9685,274.1488,0.00011499,1.542e-05,0.0,0 STARLINK-5213,1 54093U 22136AU  23286.12152922  .00001542  00000-0  11499-3 0  9999,2 54093  53.2190 317.9167 0001578  85.9685 274.1488 15.08837870 54829,6917.887,95.438,540.844,538.66,0.0
54093.0,STARLINK-5213,PAYLOAD,2023-10-13 09:16:32,15.08853279,0.0001736,53.2176,316.7289,81.8114,278.3075,0.00049277,7.566e-05,0.0,0 STARLINK-5213,1 54093U 22136AU  23286.38648449  .00007566  00000-0  49277-3 0  9998,2 54093  53.2176 316.7289 0001736  81.8114 278.3075 15.08853279 54866,6917.84,95.437,540.906,538.504,0.0
54093.0,STARLINK-5213,PAYLOAD,2023-10-13 18:48:51,15.08850071,0.0001675,53.2167,314.946,84.1524,275.9659,0.00064868,0.00010054,0.0,0 STARLINK-5213,1 54093U 22136AU  23286.78392542  .00010054  00000-0  64868-3 0  9991,2 54093  53.2167 314.9460 0001675  84.1524 275.9659 15.08850071 54925,6917.85,95.437,540.873,538.556,0.0
